{
  "type": "FeatureCollection",
  "features": [
    {
      "type": "Feature",
      "geometry": {
        "type": "Point",
        "coordinates": [
          -3.68618,
          40.409435
        ]
      },
      "properties": {
        "id": "evt-50346030",
        "slug": "90-anos-de-la-declaracion-del-parque-del-retiro-como-bien-de-interes-cul",
        "title": "90 años de la declaración del Parque del Retiro como Bien de Interés Cultural",
        "startAt": "2026-07-01T10:00:00+02:00",
        "status": "published",
        "venue": "Centro de Educación Ambiental El Retiro"
      }
    },
    {
      "type": "Feature",
      "geometry": {
        "type": "Point",
        "coordinates": [
          -3.6840988,
          40.4192106
        ]
      },
      "properties": {
        "id": "evt-50322723",
        "slug": "aldonza-la-encarada-50322723",
        "title": "Aldonza, la encarada",
        "startAt": "2026-09-06T19:30:00+02:00",
        "status": "published",
        "venue": "Centro Cultural Casa de Vacas (Retiro)"
      }
    },
    {
      "type": "Feature",
      "geometry": {
        "type": "Point",
        "coordinates": [
          -3.6840988,
          40.4192106
        ]
      },
      "properties": {
        "id": "evt-50104191",
        "slug": "antonio-pedrero-50104191",
        "title": "Antonio Pedrero",
        "startAt": "2026-09-04T00:00:00+02:00",
        "status": "published",
        "venue": "Centro Cultural Casa de Vacas (Retiro)"
      }
    },
    {
      "type": "Feature",
      "geometry": {
        "type": "Point",
        "coordinates": [
          -3.68618,
          40.409435
        ]
      },
      "properties": {
        "id": "evt-12404595",
        "slug": "artes-en-el-retiro-12404595",
        "title": "Artes en el Retiro",
        "startAt": "2026-09-26T11:00:00+02:00",
        "status": "published",
        "venue": "Centro de Educación Ambiental El Retiro"
      }
    },
    {
      "type": "Feature",
      "geometry": {
        "type": "Point",
        "coordinates": [
          -3.6866962,
          40.4187197
        ]
      },
      "properties": {
        "id": "evt-50399376",
        "slug": "buenos-dias-mundo-50399376",
        "title": "Buenos días, mundo",
        "startAt": "2026-10-10T12:30:00+02:00",
        "status": "published",
        "venue": "Teatro de Títeres de El Retiro"
      }
    },
    {
      "type": "Feature",
      "geometry": {
        "type": "Point",
        "coordinates": [
          -3.6840988,
          40.4192106
        ]
      },
      "properties": {
        "id": "evt-50265465",
        "slug": "caricias-para-el-alma-50265465",
        "title": "Caricias para el alma",
        "startAt": "2026-09-11T19:00:00+02:00",
        "status": "published",
        "venue": "Centro Cultural Casa de Vacas (Retiro)"
      }
    },
    {
      "type": "Feature",
      "geometry": {
        "type": "Point",
        "coordinates": [
          -3.6840988,
          40.4192106
        ]
      },
      "properties": {
        "id": "evt-50147340",
        "slug": "casa-club-venezuela-50147340",
        "title": "Casa Club Venezuela",
        "startAt": "2026-09-28T17:00:00+02:00",
        "status": "published",
        "venue": "Centro Cultural Casa de Vacas (Retiro)"
      }
    },
    {
      "type": "Feature",
      "geometry": {
        "type": "Point",
        "coordinates": [
          -3.6835,
          40.4155
        ]
      },
      "properties": {
        "id": "evt-50105660",
        "slug": "conoce-una-estacion-de-vigilancia-de-la-calidad-del-aire-cabana-de-la-ro",
        "title": "Conoce una Estación de Vigilancia de la Calidad del Aire (Cabaña de la Rosaleda. Parque de El Retiro)",
        "startAt": "2026-09-17T10:30:00+02:00",
        "status": "published",
        "venue": "Jardines de El Buen Retiro"
      }
    },
    {
      "type": "Feature",
      "geometry": {
        "type": "Point",
        "coordinates": [
          -3.6840988,
          40.4192106
        ]
      },
      "properties": {
        "id": "evt-50322881",
        "slug": "coplas-del-alma-50322881",
        "title": "Coplas del alma",
        "startAt": "2026-09-27T18:00:00+02:00",
        "status": "published",
        "venue": "Centro Cultural Casa de Vacas (Retiro)"
      }
    },
    {
      "type": "Feature",
      "geometry": {
        "type": "Point",
        "coordinates": [
          -3.6840988,
          40.4192106
        ]
      },
      "properties": {
        "id": "evt-50362790",
        "slug": "corazon-de-agua-retiro-50362790",
        "title": "Corazón de Agua - Retiro",
        "startAt": "2026-10-24T19:00:00+02:00",
        "status": "published",
        "venue": "Centro Cultural Casa de Vacas (Retiro)"
      }
    },
    {
      "type": "Feature",
      "geometry": {
        "type": "Point",
        "coordinates": [
          -3.6866962,
          40.4187197
        ]
      },
      "properties": {
        "id": "evt-50399373",
        "slug": "cristobal-purchinela-50399373",
        "title": "Cristóbal Purchinela",
        "startAt": "2026-10-03T12:30:00+02:00",
        "status": "published",
        "venue": "Teatro de Títeres de El Retiro"
      }
    },
    {
      "type": "Feature",
      "geometry": {
        "type": "Point",
        "coordinates": [
          -3.679318,
          40.409123
        ]
      },
      "properties": {
        "id": "evt-50148940",
        "slug": "curso-de-huerto-especializado-50148940",
        "title": "Curso de huerto especializado",
        "startAt": "2026-10-16T16:30:00+02:00",
        "status": "published",
        "venue": "Aula ambiental La Cabaña del Retiro"
      }
    },
    {
      "type": "Feature",
      "geometry": {
        "type": "Point",
        "coordinates": [
          -3.68618,
          40.409435
        ]
      },
      "properties": {
        "id": "evt-11769477",
        "slug": "descubre-el-vivero-de-estufas-del-retiro-11769477",
        "title": "Descubre el Vivero de Estufas del Retiro",
        "startAt": "2026-09-17T11:00:00+02:00",
        "status": "published",
        "venue": "Centro de Educación Ambiental El Retiro"
      }
    },
    {
      "type": "Feature",
      "geometry": {
        "type": "Point",
        "coordinates": [
          -3.68618,
          40.409435
        ]
      },
      "properties": {
        "id": "evt-11769479",
        "slug": "descubre-el-vivero-de-estufas-del-retiro-11769479",
        "title": "Descubre el Vivero de Estufas del Retiro",
        "startAt": "2026-09-19T11:00:00+02:00",
        "status": "published",
        "venue": "Centro de Educación Ambiental El Retiro"
      }
    },
    {
      "type": "Feature",
      "geometry": {
        "type": "Point",
        "coordinates": [
          -3.68618,
          40.409435
        ]
      },
      "properties": {
        "id": "evt-11769616",
        "slug": "el-agua-en-los-jardines-de-el-retiro-11769616",
        "title": "El agua en los jardines de El Retiro",
        "startAt": "2026-09-12T11:00:00+02:00",
        "status": "published",
        "venue": "Centro de Educación Ambiental El Retiro"
      }
    },
    {
      "type": "Feature",
      "geometry": {
        "type": "Point",
        "coordinates": [
          -3.6840988,
          40.4192106
        ]
      },
      "properties": {
        "id": "evt-50265824",
        "slug": "el-circo-que-llevo-dentro-50265824",
        "title": "El circo que llevo dentro",
        "startAt": "2026-09-05T12:00:00+02:00",
        "status": "expired",
        "venue": "Centro Cultural Casa de Vacas (Retiro)"
      }
    },
    {
      "type": "Feature",
      "geometry": {
        "type": "Point",
        "coordinates": [
          -3.6840988,
          40.4192106
        ]
      },
      "properties": {
        "id": "evt-50146307",
        "slug": "el-mejor-show-50146307",
        "title": "El mejor show",
        "startAt": "2026-09-20T17:00:00+02:00",
        "status": "published",
        "venue": "Centro Cultural Casa de Vacas (Retiro)"
      }
    },
    {
      "type": "Feature",
      "geometry": {
        "type": "Point",
        "coordinates": [
          -3.6866962,
          40.4187197
        ]
      },
      "properties": {
        "id": "evt-50379664",
        "slug": "el-panadero-y-el-diablo-50379664",
        "title": "El panadero y el diablo",
        "startAt": "2026-09-19T18:30:00+02:00",
        "status": "published",
        "venue": "Teatro de Títeres de El Retiro"
      }
    },
    {
      "type": "Feature",
      "geometry": {
        "type": "Point",
        "coordinates": [
          -3.68618,
          40.409435
        ]
      },
      "properties": {
        "id": "evt-11769587",
        "slug": "el-retiro-a-traves-de-sus-fotografias-11769587",
        "title": "El Retiro a través de sus fotografías",
        "startAt": "2026-09-24T11:00:00+02:00",
        "status": "published",
        "venue": "Centro de Educación Ambiental El Retiro"
      }
    },
    {
      "type": "Feature",
      "geometry": {
        "type": "Point",
        "coordinates": [
          -3.68618,
          40.409435
        ]
      },
      "properties": {
        "id": "evt-11769591",
        "slug": "el-retiro-a-traves-de-sus-jardines-11769591",
        "title": "El Retiro a través de sus jardines",
        "startAt": "2026-09-05T10:00:00+02:00",
        "status": "expired",
        "venue": "Centro de Educación Ambiental El Retiro"
      }
    },
    {
      "type": "Feature",
      "geometry": {
        "type": "Point",
        "coordinates": [
          -3.6840988,
          40.4192106
        ]
      },
      "properties": {
        "id": "evt-50266169",
        "slug": "enlazadas-50266169",
        "title": "Enlazadas",
        "startAt": "2026-09-19T19:00:00+02:00",
        "status": "published",
        "venue": "Centro Cultural Casa de Vacas (Retiro)"
      }
    },
    {
      "type": "Feature",
      "geometry": {
        "type": "Point",
        "coordinates": [
          -3.6789381,
          40.4167401
        ]
      },
      "properties": {
        "id": "evt-50404386",
        "slug": "exposicion-iv-passarela-brasil-fashion-50404386",
        "title": "Exposición 'IV Passarela Brasil Fashion'",
        "startAt": "2026-09-07T00:00:00+02:00",
        "status": "published",
        "venue": "Biblioteca Pública Municipal Eugenio Trías. Casa de Fieras de El Retiro (Retiro)"
      }
    },
    {
      "type": "Feature",
      "geometry": {
        "type": "Point",
        "coordinates": [
          -3.6840988,
          40.4192106
        ]
      },
      "properties": {
        "id": "evt-50235568",
        "slug": "festival-4-estaciones-50235568",
        "title": "Festival 4 estaciones",
        "startAt": "2026-09-10T19:00:00+02:00",
        "status": "published",
        "venue": "Centro Cultural Casa de Vacas (Retiro)"
      }
    },
    {
      "type": "Feature",
      "geometry": {
        "type": "Point",
        "coordinates": [
          -3.6866962,
          40.4187197
        ]
      },
      "properties": {
        "id": "evt-50379653",
        "slug": "hansel-y-gretel-50379653",
        "title": "Hansel y Gretel",
        "startAt": "2026-09-12T18:30:00+02:00",
        "status": "published",
        "venue": "Teatro de Títeres de El Retiro"
      }
    },
    {
      "type": "Feature",
      "geometry": {
        "type": "Point",
        "coordinates": [
          -3.6840988,
          40.4192106
        ]
      },
      "properties": {
        "id": "evt-50145563",
        "slug": "homenaje-a-jose-ignacio-cabrujas-50145563",
        "title": "Homenaje a José Ignacio Cabrujas",
        "startAt": "2026-09-14T19:00:00+02:00",
        "status": "published",
        "venue": "Centro Cultural Casa de Vacas (Retiro)"
      }
    },
    {
      "type": "Feature",
      "geometry": {
        "type": "Point",
        "coordinates": [
          -3.6840988,
          40.4192106
        ]
      },
      "properties": {
        "id": "evt-50221891",
        "slug": "ii-festival-internacional-de-piano-50221891",
        "title": "II Festival Internacional de Piano",
        "startAt": "2026-09-06T12:00:00+02:00",
        "status": "published",
        "venue": "Centro Cultural Casa de Vacas (Retiro)"
      }
    },
    {
      "type": "Feature",
      "geometry": {
        "type": "Point",
        "coordinates": [
          -3.6840988,
          40.4192106
        ]
      },
      "properties": {
        "id": "evt-50289767",
        "slug": "iii-jornadas-de-estudios-e-investigacion-en-egiptologia-50289767",
        "title": "III Jornadas de Estudios e Investigación en Egiptología",
        "startAt": "2026-09-12T10:00:00+02:00",
        "status": "published",
        "venue": "Centro Cultural Casa de Vacas (Retiro)"
      }
    },
    {
      "type": "Feature",
      "geometry": {
        "type": "Point",
        "coordinates": [
          -3.6840988,
          40.4192106
        ]
      },
      "properties": {
        "id": "evt-50265531",
        "slug": "iv-edicion-festival-alicia-de-larrocha-50265531",
        "title": "IV Edición Festival Alicia de Larrocha",
        "startAt": "2026-09-12T19:30:00+02:00",
        "status": "published",
        "venue": "Centro Cultural Casa de Vacas (Retiro)"
      }
    },
    {
      "type": "Feature",
      "geometry": {
        "type": "Point",
        "coordinates": [
          -3.6840988,
          40.4192106
        ]
      },
      "properties": {
        "id": "evt-50145709",
        "slug": "jardin-muestra-de-proceso-50145709",
        "title": "Jardín. Muestra de proceso",
        "startAt": "2026-09-26T12:30:00+02:00",
        "status": "published",
        "venue": "Centro Cultural Casa de Vacas (Retiro)"
      }
    },
    {
      "type": "Feature",
      "geometry": {
        "type": "Point",
        "coordinates": [
          -3.679318,
          40.409123
        ]
      },
      "properties": {
        "id": "evt-50202486",
        "slug": "jornada-de-huerto-50202486",
        "title": "Jornada de huerto",
        "startAt": "2026-09-06T11:00:00+02:00",
        "status": "published",
        "venue": "Aula ambiental La Cabaña del Retiro"
      }
    },
    {
      "type": "Feature",
      "geometry": {
        "type": "Point",
        "coordinates": [
          -3.679318,
          40.409123
        ]
      },
      "properties": {
        "id": "evt-50150274",
        "slug": "jornada-de-huerto-50150274",
        "title": "Jornada de huerto",
        "startAt": "2026-09-27T11:00:00+02:00",
        "status": "published",
        "venue": "Aula ambiental La Cabaña del Retiro"
      }
    },
    {
      "type": "Feature",
      "geometry": {
        "type": "Point",
        "coordinates": [
          -3.6840988,
          40.4192106
        ]
      },
      "properties": {
        "id": "evt-50368535",
        "slug": "la-charo-celebracion-ancestral-retiro-50368535",
        "title": "La Charo, celebración ancestral - Retiro",
        "startAt": "2026-11-28T19:00:00+01:00",
        "status": "published",
        "venue": "Centro Cultural Casa de Vacas (Retiro)"
      }
    },
    {
      "type": "Feature",
      "geometry": {
        "type": "Point",
        "coordinates": [
          -3.6840988,
          40.4192106
        ]
      },
      "properties": {
        "id": "evt-50147284",
        "slug": "la-musica-de-las-palabras-50147284",
        "title": "La música de las palabras",
        "startAt": "2026-09-18T19:00:00+02:00",
        "status": "published",
        "venue": "Centro Cultural Casa de Vacas (Retiro)"
      }
    },
    {
      "type": "Feature",
      "geometry": {
        "type": "Point",
        "coordinates": [
          -3.6866962,
          40.4187197
        ]
      },
      "properties": {
        "id": "evt-50379644",
        "slug": "las-aventuras-de-gasparina-50379644",
        "title": "Las aventuras de Gasparina",
        "startAt": "2026-09-05T18:30:00+02:00",
        "status": "published",
        "venue": "Teatro de Títeres de El Retiro"
      }
    },
    {
      "type": "Feature",
      "geometry": {
        "type": "Point",
        "coordinates": [
          -3.68618,
          40.409435
        ]
      },
      "properties": {
        "id": "evt-50343647",
        "slug": "los-mas-pequenos-tambien-plantamos-50343647",
        "title": "Los más pequeños también plantamos",
        "startAt": "2026-09-06T10:30:00+02:00",
        "status": "published",
        "venue": "Centro de Educación Ambiental El Retiro"
      }
    },
    {
      "type": "Feature",
      "geometry": {
        "type": "Point",
        "coordinates": [
          -3.6840988,
          40.4192106
        ]
      },
      "properties": {
        "id": "evt-50322662",
        "slug": "los-monumentos-de-los-jardines-del-buen-retiro-hablan-50322662",
        "title": "Los monumentos de los Jardines del Buen Retiro, 'hablan'",
        "startAt": "2026-09-29T19:00:00+02:00",
        "status": "published",
        "venue": "Centro Cultural Casa de Vacas (Retiro)"
      }
    },
    {
      "type": "Feature",
      "geometry": {
        "type": "Point",
        "coordinates": [
          -3.6840988,
          40.4192106
        ]
      },
      "properties": {
        "id": "evt-50174902",
        "slug": "modelo-integrador-restaurativo-50174902",
        "title": "Modelo integrador restaurativo",
        "startAt": "2026-09-07T19:00:00+02:00",
        "status": "published",
        "venue": "Centro Cultural Casa de Vacas (Retiro)"
      }
    },
    {
      "type": "Feature",
      "geometry": {
        "type": "Point",
        "coordinates": [
          -3.6840988,
          40.4192106
        ]
      },
      "properties": {
        "id": "evt-50362839",
        "slug": "musica-madre-retiro-50362839",
        "title": "Música Madre - Retiro",
        "startAt": "2026-10-02T19:00:00+02:00",
        "status": "published",
        "venue": "Centro Cultural Casa de Vacas (Retiro)"
      }
    },
    {
      "type": "Feature",
      "geometry": {
        "type": "Point",
        "coordinates": [
          -3.6840988,
          40.4192106
        ]
      },
      "properties": {
        "id": "evt-50265834",
        "slug": "paraguay-en-escena-50265834",
        "title": "Paraguay en escena",
        "startAt": "2026-09-18T19:00:00+02:00",
        "status": "published",
        "venue": "Centro Cultural Casa de Vacas (Retiro)"
      }
    },
    {
      "type": "Feature",
      "geometry": {
        "type": "Point",
        "coordinates": [
          -3.68618,
          40.409435
        ]
      },
      "properties": {
        "id": "evt-12048875",
        "slug": "paseo-historico-prado-recoletos-i-12048875",
        "title": "Paseo histórico Prado Recoletos I",
        "startAt": "2026-09-10T11:00:00+02:00",
        "status": "published",
        "venue": "Centro de Educación Ambiental El Retiro"
      }
    },
    {
      "type": "Feature",
      "geometry": {
        "type": "Point",
        "coordinates": [
          -3.6840988,
          40.4192106
        ]
      },
      "properties": {
        "id": "evt-50145704",
        "slug": "pasion-flamenca-50145704",
        "title": "Pasión flamenca",
        "startAt": "2026-09-26T19:00:00+02:00",
        "status": "published",
        "venue": "Centro Cultural Casa de Vacas (Retiro)"
      }
    },
    {
      "type": "Feature",
      "geometry": {
        "type": "Point",
        "coordinates": [
          -3.6840988,
          40.4192106
        ]
      },
      "properties": {
        "id": "evt-50235439",
        "slug": "planeta-funerario-50235439",
        "title": "Planeta funerario",
        "startAt": "2026-09-08T19:00:00+02:00",
        "status": "published",
        "venue": "Centro Cultural Casa de Vacas (Retiro)"
      }
    },
    {
      "type": "Feature",
      "geometry": {
        "type": "Point",
        "coordinates": [
          -3.6866962,
          40.4187197
        ]
      },
      "properties": {
        "id": "evt-50399379",
        "slug": "planeta-tierra-50399379",
        "title": "Planeta Tierra",
        "startAt": "2026-10-17T12:30:00+02:00",
        "status": "published",
        "venue": "Teatro de Títeres de El Retiro"
      }
    },
    {
      "type": "Feature",
      "geometry": {
        "type": "Point",
        "coordinates": [
          -3.6840988,
          40.4192106
        ]
      },
      "properties": {
        "id": "evt-50147338",
        "slug": "pop-50147338",
        "title": "Pop",
        "startAt": "2026-09-27T12:00:00+02:00",
        "status": "published",
        "venue": "Centro Cultural Casa de Vacas (Retiro)"
      }
    },
    {
      "type": "Feature",
      "geometry": {
        "type": "Point",
        "coordinates": [
          -3.6840988,
          40.4192106
        ]
      },
      "properties": {
        "id": "evt-50322790",
        "slug": "recital-de-piano-50322790",
        "title": "Recital de piano",
        "startAt": "2026-09-20T12:00:00+02:00",
        "status": "published",
        "venue": "Centro Cultural Casa de Vacas (Retiro)"
      }
    },
    {
      "type": "Feature",
      "geometry": {
        "type": "Point",
        "coordinates": [
          -3.6840988,
          40.4192106
        ]
      },
      "properties": {
        "id": "evt-50289806",
        "slug": "recorriendo-el-mundo-a-traves-de-la-danza-50289806",
        "title": "Recorriendo el mundo a través de la danza",
        "startAt": "2026-09-13T19:00:00+02:00",
        "status": "published",
        "venue": "Centro Cultural Casa de Vacas (Retiro)"
      }
    },
    {
      "type": "Feature",
      "geometry": {
        "type": "Point",
        "coordinates": [
          -3.6840988,
          40.4192106
        ]
      },
      "properties": {
        "id": "evt-50147445",
        "slug": "reencuentros-50147445",
        "title": "Reencuentros",
        "startAt": "2026-09-05T19:00:00+02:00",
        "status": "expired",
        "venue": "Centro Cultural Casa de Vacas (Retiro)"
      }
    },
    {
      "type": "Feature",
      "geometry": {
        "type": "Point",
        "coordinates": [
          -3.679318,
          40.409123
        ]
      },
      "properties": {
        "id": "evt-50173945",
        "slug": "senda-guiada-las-maravillas-del-retiro-50173945",
        "title": "Senda guiada 'Las maravillas del Retiro'",
        "startAt": "2026-09-11T16:30:00+02:00",
        "status": "published",
        "venue": "Aula ambiental La Cabaña del Retiro"
      }
    },
    {
      "type": "Feature",
      "geometry": {
        "type": "Point",
        "coordinates": [
          -3.679318,
          40.409123
        ]
      },
      "properties": {
        "id": "evt-50173923",
        "slug": "senda-guiada-los-frutos-del-otono-50173923",
        "title": "Senda guiada 'Los frutos del otoño'",
        "startAt": "2026-09-25T16:30:00+02:00",
        "status": "published",
        "venue": "Aula ambiental La Cabaña del Retiro"
      }
    },
    {
      "type": "Feature",
      "geometry": {
        "type": "Point",
        "coordinates": [
          -3.679318,
          40.409123
        ]
      },
      "properties": {
        "id": "evt-50173965",
        "slug": "senda-guiada-ruta-especies-exoticas-50173965",
        "title": "Senda guiada 'Ruta especies exóticas'",
        "startAt": "2026-09-04T16:30:00+02:00",
        "status": "published",
        "venue": "Aula ambiental La Cabaña del Retiro"
      }
    },
    {
      "type": "Feature",
      "geometry": {
        "type": "Point",
        "coordinates": [
          -3.679318,
          40.409123
        ]
      },
      "properties": {
        "id": "evt-50150270",
        "slug": "senda-guiada-ruta-los-origenes-del-retiro-50150270",
        "title": "Senda guiada 'Ruta los orígenes del Retiro'",
        "startAt": "2026-09-18T16:30:00+02:00",
        "status": "published",
        "venue": "Aula ambiental La Cabaña del Retiro"
      }
    },
    {
      "type": "Feature",
      "geometry": {
        "type": "Point",
        "coordinates": [
          -3.6840988,
          40.4192106
        ]
      },
      "properties": {
        "id": "evt-50147279",
        "slug": "stage-on-the-road-50147279",
        "title": "Stage-on the road",
        "startAt": "2026-09-04T18:00:00+02:00",
        "status": "expired",
        "venue": "Centro Cultural Casa de Vacas (Retiro)"
      }
    },
    {
      "type": "Feature",
      "geometry": {
        "type": "Point",
        "coordinates": [
          -3.68618,
          40.409435
        ]
      },
      "properties": {
        "id": "evt-50343651",
        "slug": "taller-de-compostaje-en-el-huerto-de-el-retiro-50343651",
        "title": "Taller de compostaje en el Huerto de El Retiro",
        "startAt": "2026-09-25T16:00:00+02:00",
        "status": "published",
        "venue": "Centro de Educación Ambiental El Retiro"
      }
    },
    {
      "type": "Feature",
      "geometry": {
        "type": "Point",
        "coordinates": [
          -3.68618,
          40.409435
        ]
      },
      "properties": {
        "id": "evt-11771314",
        "slug": "taller-de-huerto-familiar-11771314",
        "title": "Taller de huerto familiar",
        "startAt": "2026-09-27T10:30:00+02:00",
        "status": "published",
        "venue": "Centro de Educación Ambiental El Retiro"
      }
    },
    {
      "type": "Feature",
      "geometry": {
        "type": "Point",
        "coordinates": [
          -3.679318,
          40.409123
        ]
      },
      "properties": {
        "id": "evt-50173971",
        "slug": "taller-conoce-los-insectos-y-otros-habitantes-de-la-cabana-50173971",
        "title": "Taller 'Conoce los insectos y otros habitantes de La Cabaña'",
        "startAt": "2026-09-13T11:00:00+02:00",
        "status": "published",
        "venue": "Aula ambiental La Cabaña del Retiro"
      }
    },
    {
      "type": "Feature",
      "geometry": {
        "type": "Point",
        "coordinates": [
          -3.679318,
          40.409123
        ]
      },
      "properties": {
        "id": "evt-50149650",
        "slug": "taller-las-huellas-del-bosque-50149650",
        "title": "Taller 'Las huellas del bosque'",
        "startAt": "2026-09-20T11:00:00+02:00",
        "status": "published",
        "venue": "Aula ambiental La Cabaña del Retiro"
      }
    },
    {
      "type": "Feature",
      "geometry": {
        "type": "Point",
        "coordinates": [
          -3.68618,
          40.409435
        ]
      },
      "properties": {
        "id": "evt-50346069",
        "slug": "taller-extraccion-de-semillas-50346069",
        "title": "Taller: Extracción de semillas",
        "startAt": "2026-09-24T11:00:00+02:00",
        "status": "published",
        "venue": "Centro de Educación Ambiental El Retiro"
      }
    },
    {
      "type": "Feature",
      "geometry": {
        "type": "Point",
        "coordinates": [
          -3.68618,
          40.409435
        ]
      },
      "properties": {
        "id": "evt-11771315",
        "slug": "taller-fauna-del-huerto-11771315",
        "title": "Taller: Fauna del Huerto",
        "startAt": "2026-09-13T10:30:00+02:00",
        "status": "published",
        "venue": "Centro de Educación Ambiental El Retiro"
      }
    },
    {
      "type": "Feature",
      "geometry": {
        "type": "Point",
        "coordinates": [
          -3.6866962,
          40.4187197
        ]
      },
      "properties": {
        "id": "evt-50399382",
        "slug": "titeres-a-cielo-abierto-2026-50399382",
        "title": "Títeres a cielo abierto 2026",
        "startAt": "2026-10-24T12:30:00+02:00",
        "status": "published",
        "venue": "Teatro de Títeres de El Retiro"
      }
    },
    {
      "type": "Feature",
      "geometry": {
        "type": "Point",
        "coordinates": [
          -3.6866962,
          40.4187197
        ]
      },
      "properties": {
        "id": "evt-50380598",
        "slug": "trapos-50380598",
        "title": "Trapos",
        "startAt": "2026-09-26T18:30:00+02:00",
        "status": "published",
        "venue": "Teatro de Títeres de El Retiro"
      }
    },
    {
      "type": "Feature",
      "geometry": {
        "type": "Point",
        "coordinates": [
          -3.6840988,
          40.4192106
        ]
      },
      "properties": {
        "id": "evt-50146209",
        "slug": "trilogia-andaluza-50146209",
        "title": "Trilogía andaluza",
        "startAt": "2026-09-17T19:00:00+02:00",
        "status": "published",
        "venue": "Centro Cultural Casa de Vacas (Retiro)"
      }
    },
    {
      "type": "Feature",
      "geometry": {
        "type": "Point",
        "coordinates": [
          -3.6840988,
          40.4192106
        ]
      },
      "properties": {
        "id": "evt-50103106",
        "slug": "una-ducha-de-agua-fria-50103106",
        "title": "Una ducha de agua fría",
        "startAt": "2026-09-30T19:00:00+02:00",
        "status": "published",
        "venue": "Centro Cultural Casa de Vacas (Retiro)"
      }
    },
    {
      "type": "Feature",
      "geometry": {
        "type": "Point",
        "coordinates": [
          -3.679318,
          40.409123
        ]
      },
      "properties": {
        "id": "evt-50173921",
        "slug": "visita-guiada-a-la-casa-de-campo-50173921",
        "title": "Visita guiada a la Casa de Campo",
        "startAt": "2026-09-23T10:30:00+02:00",
        "status": "published",
        "venue": "Aula ambiental La Cabaña del Retiro"
      }
    },
    {
      "type": "Feature",
      "geometry": {
        "type": "Point",
        "coordinates": [
          -3.679318,
          40.409123
        ]
      },
      "properties": {
        "id": "evt-50148204",
        "slug": "visita-guiada-a-la-fuente-del-berro-50148204",
        "title": "Visita guiada a la Fuente del Berro",
        "startAt": "2026-09-16T10:30:00+02:00",
        "status": "published",
        "venue": "Aula ambiental La Cabaña del Retiro"
      }
    },
    {
      "type": "Feature",
      "geometry": {
        "type": "Point",
        "coordinates": [
          -3.6840988,
          40.4192106
        ]
      },
      "properties": {
        "id": "evt-50235019",
        "slug": "xx-encuentro-talent-universal-50235019",
        "title": "XX Encuentro. Talent Universal",
        "startAt": "2026-09-13T12:00:00+02:00",
        "status": "published",
        "venue": "Centro Cultural Casa de Vacas (Retiro)"
      }
    },
    {
      "type": "Feature",
      "geometry": {
        "type": "Point",
        "coordinates": [
          -3.679318,
          40.409123
        ]
      },
      "properties": {
        "id": "evt-50173982",
        "slug": "yincana-ornitologica-50173982",
        "title": "Yincana ornitológica",
        "startAt": "2026-09-19T16:30:00+02:00",
        "status": "published",
        "venue": "Aula ambiental La Cabaña del Retiro"
      }
    },
    {
      "type": "Feature",
      "geometry": {
        "type": "Point",
        "coordinates": [
          -3.679318,
          40.409123
        ]
      },
      "properties": {
        "id": "evt-50148887",
        "slug": "yincana-descubriendo-los-frutos-del-otono-50148887",
        "title": "Yincana 'Descubriendo los frutos del otoño'",
        "startAt": "2026-09-26T16:30:00+02:00",
        "status": "published",
        "venue": "Aula ambiental La Cabaña del Retiro"
      }
    },
    {
      "type": "Feature",
      "geometry": {
        "type": "Point",
        "coordinates": [
          -3.6789381,
          40.4167401
        ]
      },
      "properties": {
        "id": "evt-50372929",
        "slug": "a-taste-of-the-moon-con-mamen-storyteller-50372929",
        "title": "'A taste of the moon' con Mamen Storyteller",
        "startAt": "2026-09-30T18:00:00+02:00",
        "status": "published",
        "venue": "Biblioteca Pública Municipal Eugenio Trías. Casa de Fieras de El Retiro (Retiro)"
      }
    },
    {
      "type": "Feature",
      "geometry": {
        "type": "Point",
        "coordinates": [
          -3.6789381,
          40.4167401
        ]
      },
      "properties": {
        "id": "evt-50402454",
        "slug": "brizna-de-silencio-de-sonia-bautista-50402454",
        "title": "'Brizna de silencio' de Sonia Bautista",
        "startAt": "2026-09-11T18:15:00+02:00",
        "status": "published",
        "venue": "Biblioteca Pública Municipal Eugenio Trías. Casa de Fieras de El Retiro (Retiro)"
      }
    },
    {
      "type": "Feature",
      "geometry": {
        "type": "Point",
        "coordinates": [
          -3.6789381,
          40.4167401
        ]
      },
      "properties": {
        "id": "evt-50389043",
        "slug": "el-viaje-de-la-maternidad-de-raquel-huescar-parraga-50389043",
        "title": "'El viaje de la maternidad' de Raquel Huéscar Párraga",
        "startAt": "2026-09-04T18:00:00+02:00",
        "status": "expired",
        "venue": "Biblioteca Pública Municipal Eugenio Trías. Casa de Fieras de El Retiro (Retiro)"
      }
    },
    {
      "type": "Feature",
      "geometry": {
        "type": "Point",
        "coordinates": [
          -3.6789381,
          40.4167401
        ]
      },
      "properties": {
        "id": "evt-50396279",
        "slug": "lo-que-no-se-ve-en-la-radio-de-javier-garcia-romero-50396279",
        "title": "'Lo que no se ve en la radio' de Javier García Romero",
        "startAt": "2026-09-10T18:00:00+02:00",
        "status": "published",
        "venue": "Biblioteca Pública Municipal Eugenio Trías. Casa de Fieras de El Retiro (Retiro)"
      }
    },
    {
      "type": "Feature",
      "geometry": {
        "type": "Point",
        "coordinates": [
          -3.679318,
          40.409123
        ]
      },
      "properties": {
        "id": "evt-50150285",
        "slug": "nuestros-companeros-mas-fieles-convivir-respetar-y-proteger-a-los-animal",
        "title": "'Nuestros compañeros más fieles: convivir, respetar y proteger a los animales'",
        "startAt": "2026-09-12T16:30:00+02:00",
        "status": "published",
        "venue": "Aula ambiental La Cabaña del Retiro"
      }
    },
    {
      "type": "Feature",
      "geometry": {
        "type": "Point",
        "coordinates": [
          -3.6789381,
          40.4167401
        ]
      },
      "properties": {
        "id": "evt-50371426",
        "slug": "perrito-se-va-de-paseo-con-nelson-calderon-50371426",
        "title": "'Perrito se va de paseo' con Nelson Calderón",
        "startAt": "2026-09-09T18:00:00+02:00",
        "status": "published",
        "venue": "Biblioteca Pública Municipal Eugenio Trías. Casa de Fieras de El Retiro (Retiro)"
      }
    },
    {
      "type": "Feature",
      "geometry": {
        "type": "Point",
        "coordinates": [
          -3.679318,
          40.409123
        ]
      },
      "properties": {
        "id": "evt-50174266",
        "slug": "que-son-los-ecosistemas-50174266",
        "title": "¿Qué son los ecosistemas?",
        "startAt": "2026-09-05T16:30:00+02:00",
        "status": "expired",
        "venue": "Aula ambiental La Cabaña del Retiro"
      }
    }
  ]
}
