{
  "type": "FeatureCollection",
  "features": [
    {
      "type": "Feature",
      "geometry": {
        "type": "LineString",
        "coordinates": [
          [
            -3.688693,
            40.415275
          ],
          [
            -3.688472,
            40.415278
          ],
          [
            -3.68847,
            40.415227
          ],
          [
            -3.687011,
            40.415263
          ],
          [
            -3.687004,
            40.415041
          ],
          [
            -3.68656,
            40.41505
          ],
          [
            -3.68633,
            40.415149
          ],
          [
            -3.686248,
            40.415325
          ],
          [
            -3.684418,
            40.415386
          ],
          [
            -3.684395,
            40.415484
          ],
          [
            -3.684238,
            40.415559
          ],
          [
            -3.684294,
            40.415705
          ],
          [
            -3.682617,
            40.416074
          ],
          [
            -3.68266,
            40.416703
          ],
          [
            -3.682467,
            40.417222
          ],
          [
            -3.682467,
            40.417452
          ],
          [
            -3.682858,
            40.417361
          ],
          [
            -3.682966,
            40.41746
          ],
          [
            -3.683134,
            40.417473
          ],
          [
            -3.683262,
            40.417397
          ],
          [
            -3.68329,
            40.417281
          ],
          [
            -3.683262,
            40.417397
          ],
          [
            -3.683134,
            40.417473
          ],
          [
            -3.682966,
            40.41746
          ],
          [
            -3.682858,
            40.417361
          ],
          [
            -3.682467,
            40.417452
          ],
          [
            -3.682467,
            40.417222
          ],
          [
            -3.68266,
            40.416703
          ],
          [
            -3.682617,
            40.416074
          ],
          [
            -3.682555,
            40.415751
          ],
          [
            -3.6822,
            40.415824
          ],
          [
            -3.682168,
            40.415708
          ],
          [
            -3.682507,
            40.415375
          ],
          [
            -3.682508,
            40.415242
          ],
          [
            -3.682069,
            40.413991
          ],
          [
            -3.681812,
            40.41371
          ],
          [
            -3.681787,
            40.413636
          ],
          [
            -3.681867,
            40.413621
          ],
          [
            -3.681798,
            40.413596
          ],
          [
            -3.681837,
            40.413293
          ],
          [
            -3.681727,
            40.41299
          ],
          [
            -3.681499,
            40.412762
          ],
          [
            -3.681414,
            40.412517
          ],
          [
            -3.680905,
            40.412342
          ],
          [
            -3.680556,
            40.4114
          ],
          [
            -3.680778,
            40.411267
          ],
          [
            -3.681295,
            40.411147
          ],
          [
            -3.68121,
            40.410853
          ],
          [
            -3.681502,
            40.410724
          ],
          [
            -3.681226,
            40.410491
          ],
          [
            -3.681604,
            40.410192
          ],
          [
            -3.681911,
            40.41049
          ],
          [
            -3.682285,
            40.410392
          ],
          [
            -3.682489,
            40.410886
          ]
        ]
      },
      "properties": {
        "id": "retiro-imprescindible",
        "slug": "retiro-imprescindible",
        "name": "El Retiro imprescindible",
        "estimatedDurationMinutes": 90,
        "approximateDistanceMeters": 2070
      }
    },
    {
      "type": "Feature",
      "geometry": {
        "type": "LineString",
        "coordinates": [
          [
            -3.688637,
            40.416649
          ],
          [
            -3.688557,
            40.416603
          ],
          [
            -3.687469,
            40.416674
          ],
          [
            -3.687458,
            40.416632
          ],
          [
            -3.686345,
            40.416335
          ],
          [
            -3.685858,
            40.416371
          ],
          [
            -3.685709,
            40.415919
          ],
          [
            -3.684296,
            40.415549
          ],
          [
            -3.684238,
            40.415559
          ],
          [
            -3.684294,
            40.415705
          ],
          [
            -3.682617,
            40.416074
          ],
          [
            -3.68266,
            40.416703
          ],
          [
            -3.682467,
            40.417222
          ],
          [
            -3.682467,
            40.417452
          ],
          [
            -3.682858,
            40.417361
          ],
          [
            -3.682966,
            40.41746
          ],
          [
            -3.683134,
            40.417473
          ],
          [
            -3.683262,
            40.417397
          ],
          [
            -3.68329,
            40.417281
          ],
          [
            -3.683262,
            40.417397
          ],
          [
            -3.683134,
            40.417473
          ],
          [
            -3.682966,
            40.41746
          ],
          [
            -3.682858,
            40.417361
          ],
          [
            -3.682467,
            40.417452
          ],
          [
            -3.682467,
            40.417222
          ],
          [
            -3.682641,
            40.416815
          ],
          [
            -3.682668,
            40.416598
          ],
          [
            -3.682555,
            40.415751
          ],
          [
            -3.6822,
            40.415824
          ],
          [
            -3.682056,
            40.415393
          ],
          [
            -3.682515,
            40.415302
          ],
          [
            -3.682508,
            40.415242
          ],
          [
            -3.682069,
            40.413991
          ],
          [
            -3.681812,
            40.41371
          ],
          [
            -3.681787,
            40.413636
          ],
          [
            -3.681867,
            40.413621
          ]
        ]
      },
      "properties": {
        "id": "retiro-en-una-hora",
        "slug": "retiro-en-una-hora",
        "name": "El Retiro en una hora",
        "estimatedDurationMinutes": 60,
        "approximateDistanceMeters": 1450
      }
    },
    {
      "type": "Feature",
      "geometry": {
        "type": "LineString",
        "coordinates": [
          [
            -3.68633,
            40.418875
          ],
          [
            -3.685476,
            40.418497
          ],
          [
            -3.685345,
            40.418542
          ],
          [
            -3.685303,
            40.418651
          ],
          [
            -3.68441,
            40.418717
          ],
          [
            -3.68373,
            40.418814
          ],
          [
            -3.683577,
            40.418761
          ],
          [
            -3.683482,
            40.418823
          ],
          [
            -3.68135,
            40.417923
          ],
          [
            -3.681356,
            40.417712
          ],
          [
            -3.681249,
            40.417563
          ],
          [
            -3.680788,
            40.417416
          ],
          [
            -3.680438,
            40.416553
          ],
          [
            -3.678875,
            40.416845
          ],
          [
            -3.679729,
            40.416697
          ],
          [
            -3.679597,
            40.416094
          ],
          [
            -3.678909,
            40.416221
          ],
          [
            -3.678947,
            40.416322
          ],
          [
            -3.678862,
            40.416429
          ],
          [
            -3.678977,
            40.41652
          ],
          [
            -3.678862,
            40.416429
          ],
          [
            -3.678947,
            40.416322
          ],
          [
            -3.678909,
            40.416221
          ],
          [
            -3.679597,
            40.416094
          ],
          [
            -3.679861,
            40.417197
          ],
          [
            -3.680052,
            40.417162
          ],
          [
            -3.68014,
            40.417441
          ],
          [
            -3.680076,
            40.417453
          ],
          [
            -3.680267,
            40.417951
          ],
          [
            -3.680428,
            40.418055
          ],
          [
            -3.680563,
            40.418307
          ],
          [
            -3.680454,
            40.419086
          ],
          [
            -3.680508,
            40.419307
          ],
          [
            -3.681061,
            40.420016
          ],
          [
            -3.681337,
            40.420525
          ],
          [
            -3.681126,
            40.420685
          ],
          [
            -3.681031,
            40.420611
          ],
          [
            -3.681126,
            40.420685
          ],
          [
            -3.683562,
            40.418961
          ],
          [
            -3.683706,
            40.418937
          ],
          [
            -3.68373,
            40.418814
          ],
          [
            -3.68441,
            40.418717
          ],
          [
            -3.685303,
            40.418651
          ],
          [
            -3.685345,
            40.418542
          ],
          [
            -3.685476,
            40.418497
          ],
          [
            -3.685345,
            40.418542
          ],
          [
            -3.685303,
            40.418651
          ],
          [
            -3.68441,
            40.418717
          ],
          [
            -3.68373,
            40.418814
          ],
          [
            -3.683649,
            40.418763
          ],
          [
            -3.683543,
            40.418771
          ],
          [
            -3.683158,
            40.417969
          ],
          [
            -3.683028,
            40.417839
          ],
          [
            -3.683164,
            40.417657
          ],
          [
            -3.68328,
            40.417626
          ],
          [
            -3.683211,
            40.417442
          ],
          [
            -3.68329,
            40.417281
          ]
        ]
      },
      "properties": {
        "id": "retiro-con-ninos",
        "slug": "retiro-con-ninos",
        "name": "El Retiro con niños",
        "estimatedDurationMinutes": 75,
        "approximateDistanceMeters": 2570
      }
    },
    {
      "type": "Feature",
      "geometry": {
        "type": "LineString",
        "coordinates": [
          [
            -3.682489,
            40.410886
          ],
          [
            -3.682285,
            40.410392
          ],
          [
            -3.681911,
            40.41049
          ],
          [
            -3.681604,
            40.410192
          ],
          [
            -3.681226,
            40.410491
          ],
          [
            -3.681427,
            40.410625
          ],
          [
            -3.681613,
            40.410873
          ],
          [
            -3.681761,
            40.411228
          ],
          [
            -3.68169,
            40.411057
          ],
          [
            -3.680778,
            40.411267
          ],
          [
            -3.680556,
            40.4114
          ],
          [
            -3.680905,
            40.412342
          ],
          [
            -3.681414,
            40.412517
          ],
          [
            -3.681499,
            40.412762
          ],
          [
            -3.681727,
            40.41299
          ],
          [
            -3.681837,
            40.413293
          ],
          [
            -3.681798,
            40.413596
          ],
          [
            -3.681867,
            40.413621
          ],
          [
            -3.681798,
            40.413596
          ],
          [
            -3.681837,
            40.413293
          ],
          [
            -3.68156,
            40.413298
          ],
          [
            -3.681401,
            40.413471
          ],
          [
            -3.681069,
            40.413583
          ],
          [
            -3.680799,
            40.413924
          ],
          [
            -3.681136,
            40.414198
          ],
          [
            -3.681569,
            40.41549
          ],
          [
            -3.682056,
            40.415393
          ],
          [
            -3.6822,
            40.415824
          ],
          [
            -3.682555,
            40.415751
          ],
          [
            -3.682668,
            40.416598
          ],
          [
            -3.682449,
            40.41738
          ],
          [
            -3.682467,
            40.417452
          ],
          [
            -3.682858,
            40.417361
          ],
          [
            -3.682966,
            40.41746
          ],
          [
            -3.682858,
            40.417361
          ],
          [
            -3.682467,
            40.417452
          ],
          [
            -3.682467,
            40.417222
          ],
          [
            -3.68266,
            40.416703
          ],
          [
            -3.682617,
            40.416074
          ],
          [
            -3.682555,
            40.415751
          ],
          [
            -3.6822,
            40.415824
          ],
          [
            -3.682168,
            40.415708
          ],
          [
            -3.682507,
            40.415375
          ],
          [
            -3.682508,
            40.415242
          ],
          [
            -3.682069,
            40.413991
          ],
          [
            -3.681812,
            40.41371
          ],
          [
            -3.681756,
            40.413537
          ],
          [
            -3.681837,
            40.413293
          ],
          [
            -3.681727,
            40.41299
          ],
          [
            -3.681499,
            40.412762
          ],
          [
            -3.681414,
            40.412517
          ],
          [
            -3.680905,
            40.412342
          ],
          [
            -3.680443,
            40.411099
          ],
          [
            -3.68053,
            40.411036
          ],
          [
            -3.680452,
            40.410829
          ],
          [
            -3.680491,
            40.41076
          ],
          [
            -3.680397,
            40.410676
          ],
          [
            -3.680285,
            40.410701
          ]
        ]
      },
      "properties": {
        "id": "ruta-fotografica",
        "slug": "ruta-fotografica",
        "name": "Ruta fotográfica",
        "estimatedDurationMinutes": 100,
        "approximateDistanceMeters": 2330
      }
    },
    {
      "type": "Feature",
      "geometry": {
        "type": "LineString",
        "coordinates": [
          [
            -3.688637,
            40.416649
          ],
          [
            -3.688557,
            40.416603
          ],
          [
            -3.688649,
            40.416233
          ],
          [
            -3.688576,
            40.414717
          ],
          [
            -3.685943,
            40.41477
          ],
          [
            -3.685065,
            40.414867
          ],
          [
            -3.684465,
            40.415011
          ],
          [
            -3.684312,
            40.415278
          ],
          [
            -3.684106,
            40.415294
          ],
          [
            -3.684038,
            40.415447
          ],
          [
            -3.682555,
            40.415751
          ],
          [
            -3.682668,
            40.416598
          ],
          [
            -3.682641,
            40.416815
          ],
          [
            -3.682467,
            40.417222
          ],
          [
            -3.682467,
            40.417452
          ],
          [
            -3.682,
            40.417561
          ],
          [
            -3.682005,
            40.417621
          ],
          [
            -3.681957,
            40.41721
          ],
          [
            -3.681812,
            40.417227
          ],
          [
            -3.681693,
            40.417161
          ],
          [
            -3.681386,
            40.417191
          ],
          [
            -3.681278,
            40.417134
          ],
          [
            -3.681092,
            40.416876
          ],
          [
            -3.680885,
            40.416746
          ],
          [
            -3.680519,
            40.416753
          ],
          [
            -3.6803,
            40.416213
          ],
          [
            -3.679782,
            40.414032
          ],
          [
            -3.680361,
            40.41392
          ],
          [
            -3.680701,
            40.413885
          ],
          [
            -3.680799,
            40.413924
          ],
          [
            -3.681069,
            40.413583
          ],
          [
            -3.681401,
            40.413471
          ],
          [
            -3.68156,
            40.413298
          ],
          [
            -3.681682,
            40.413282
          ],
          [
            -3.682276,
            40.413402
          ],
          [
            -3.683353,
            40.41318
          ],
          [
            -3.683469,
            40.413486
          ],
          [
            -3.684697,
            40.413243
          ],
          [
            -3.684668,
            40.413105
          ],
          [
            -3.685133,
            40.413053
          ],
          [
            -3.685899,
            40.412991
          ],
          [
            -3.686256,
            40.413159
          ],
          [
            -3.686813,
            40.413136
          ],
          [
            -3.686812,
            40.411884
          ],
          [
            -3.686977,
            40.41172
          ],
          [
            -3.687238,
            40.411667
          ],
          [
            -3.687237,
            40.411607
          ],
          [
            -3.685379,
            40.411622
          ],
          [
            -3.685336,
            40.411354
          ],
          [
            -3.684794,
            40.411432
          ],
          [
            -3.68458,
            40.410493
          ],
          [
            -3.683368,
            40.41077
          ],
          [
            -3.683366,
            40.410446
          ],
          [
            -3.682312,
            40.410457
          ],
          [
            -3.682489,
            40.410886
          ],
          [
            -3.682312,
            40.410457
          ],
          [
            -3.683366,
            40.410446
          ],
          [
            -3.683368,
            40.41077
          ],
          [
            -3.68458,
            40.410493
          ],
          [
            -3.684794,
            40.411432
          ],
          [
            -3.685402,
            40.411752
          ],
          [
            -3.686078,
            40.415514
          ],
          [
            -3.686351,
            40.415746
          ],
          [
            -3.686377,
            40.415906
          ],
          [
            -3.686668,
            40.415898
          ],
          [
            -3.68684,
            40.416123
          ],
          [
            -3.687285,
            40.416286
          ],
          [
            -3.687326,
            40.416356
          ],
          [
            -3.687465,
            40.416341
          ],
          [
            -3.687827,
            40.416419
          ],
          [
            -3.688288,
            40.416574
          ],
          [
            -3.688298,
            40.41662
          ],
          [
            -3.688557,
            40.416603
          ],
          [
            -3.688637,
            40.416649
          ]
        ]
      },
      "properties": {
        "id": "caminar-o-correr",
        "slug": "caminar-o-correr",
        "name": "Caminar o correr por El Retiro",
        "estimatedDurationMinutes": 50,
        "approximateDistanceMeters": 4170
      }
    },
    {
      "type": "Feature",
      "geometry": {
        "type": "LineString",
        "coordinates": [
          [
            -3.686792,
            40.415315
          ],
          [
            -3.686794,
            40.415405
          ],
          [
            -3.687201,
            40.415354
          ],
          [
            -3.68768,
            40.41548
          ],
          [
            -3.687926,
            40.415458
          ],
          [
            -3.68798,
            40.415489
          ],
          [
            -3.687965,
            40.415554
          ],
          [
            -3.688435,
            40.415684
          ],
          [
            -3.688598,
            40.415681
          ],
          [
            -3.688649,
            40.416233
          ],
          [
            -3.688557,
            40.416603
          ],
          [
            -3.688637,
            40.416649
          ],
          [
            -3.688503,
            40.416764
          ],
          [
            -3.685687,
            40.41695
          ],
          [
            -3.685751,
            40.417242
          ],
          [
            -3.685389,
            40.417294
          ],
          [
            -3.685223,
            40.417683
          ],
          [
            -3.685062,
            40.417711
          ],
          [
            -3.685373,
            40.418523
          ],
          [
            -3.685303,
            40.418651
          ],
          [
            -3.68441,
            40.418717
          ],
          [
            -3.68373,
            40.418814
          ],
          [
            -3.683649,
            40.418763
          ],
          [
            -3.683543,
            40.418771
          ],
          [
            -3.683158,
            40.417969
          ],
          [
            -3.683028,
            40.417839
          ],
          [
            -3.683164,
            40.417657
          ],
          [
            -3.68328,
            40.417626
          ],
          [
            -3.683211,
            40.417442
          ],
          [
            -3.683006,
            40.417472
          ],
          [
            -3.682858,
            40.417361
          ],
          [
            -3.68117,
            40.417756
          ],
          [
            -3.681145,
            40.417872
          ],
          [
            -3.681061,
            40.417938
          ],
          [
            -3.681173,
            40.417785
          ],
          [
            -3.681072,
            40.417642
          ],
          [
            -3.681386,
            40.417191
          ],
          [
            -3.681693,
            40.417161
          ],
          [
            -3.681689,
            40.417016
          ],
          [
            -3.681851,
            40.416939
          ],
          [
            -3.681596,
            40.416559
          ],
          [
            -3.681509,
            40.416317
          ],
          [
            -3.680172,
            40.416611
          ],
          [
            -3.680316,
            40.416994
          ],
          [
            -3.680077,
            40.416258
          ],
          [
            -3.680387,
            40.416195
          ],
          [
            -3.679877,
            40.414038
          ],
          [
            -3.679367,
            40.411881
          ],
          [
            -3.679711,
            40.41215
          ],
          [
            -3.68007,
            40.412582
          ],
          [
            -3.680632,
            40.411586
          ],
          [
            -3.680556,
            40.4114
          ],
          [
            -3.680197,
            40.411394
          ],
          [
            -3.67968,
            40.411508
          ],
          [
            -3.67956,
            40.411228
          ],
          [
            -3.679641,
            40.411048
          ],
          [
            -3.679915,
            40.410944
          ],
          [
            -3.679934,
            40.410993
          ],
          [
            -3.680773,
            40.410805
          ],
          [
            -3.68075,
            40.410746
          ],
          [
            -3.680921,
            40.410708
          ],
          [
            -3.680897,
            40.410652
          ],
          [
            -3.681027,
            40.410686
          ],
          [
            -3.68121,
            40.410853
          ],
          [
            -3.681502,
            40.410724
          ],
          [
            -3.681226,
            40.410491
          ],
          [
            -3.681604,
            40.410192
          ],
          [
            -3.681911,
            40.41049
          ],
          [
            -3.682285,
            40.410392
          ],
          [
            -3.682489,
            40.410886
          ]
        ]
      },
      "properties": {
        "id": "ruta-estatuas",
        "slug": "ruta-estatuas",
        "name": "Ruta de las estatuas",
        "estimatedDurationMinutes": 100,
        "approximateDistanceMeters": 3080
      }
    }
  ]
}
